LARES-2                 
1 53105U 22080A   26154.55208436 -.00000012  00000+0  00000+0 0  9999
2 53105  70.1655 310.0052 0005379 337.8766  22.1504  6.38965171 90790
GREENCUBE (IO-117)      
1 53109U 22080E   26152.46502029 -.00000003  00000+0  00000+0 0  9996
2 53109  70.1435 303.7143 0008869 293.3663  66.6064  6.42583280 91055
STARLINK-4410           
1 53204U 22084R   26155.91672454  .00037247  00000+0  14179-2 0  9993
2 53204  97.6001 216.7556 0001544  79.0840 345.7227 15.26643695  5836
COSMOS 2558             
1 53323U 22089A   26155.17585944  .00109256  00000+0  81170-3 0  9991
2 53323  97.2257 258.7358 0000998 161.6253 198.5048 15.72512989215785
TECMS                   
1 53346U 22090A   26155.92527588  .00004489  00000+0  20356-3 0  9992
2 53346  97.3138 224.3812 0002225 224.4255 135.6802 15.21320358212944
DONGPO 02               
1 53452U 22098J   26155.96697120  .00104344  00000+0  78586-3 0  9991
2 53452  97.5514 286.1207 0001082 337.4473  22.6742 15.72202851212876
DONGPO 01               
1 53453U 22098K   26155.94161759  .00089338  00000+0  73064-3 0  9995
2 53453  97.5575 286.6492 0000907 243.7874 116.3295 15.70274146212838
STARLINK-4400           
1 53468U 22099D   26155.21902708  .00006482  00000+0  45311-3 0  9992
2 53468  97.4074 274.8158 0002865 168.2792 191.8502 15.05627468208998
STARLINK-4621           
1 53676U 22105AE  26155.22181636  .00001074  00000+0  78464-4 0  9999
2 53676  97.4061  34.8288 0002480  59.2736 300.8735 15.05627826206258
SHERPA-LTC2             
1 53754U 22107BG  26154.58507150  .00007806  00000+0  39249-3 0  9995
2 53754  53.2352 277.9059 0395495 187.9440 171.5150 14.69514663200549
CENTISPACE-1 S3         
1 53757U 22108A   26155.89560171  .00000478  00000+0  13422-3 0  9999
2 53757  53.5320 106.0845 0008632 319.6318  40.4016 14.61236908199735
CENTISPACE-1 S4         
1 53758U 22108B   26155.88560552  .00000637  00000+0  16389-3 0  9994
2 53758  53.5296 103.7018 0007961 306.3252  53.6988 14.61913762199765
BLUEWALKER-3            
1 53807U 22111AL  26155.11977056  .00007960  00000+0  21918-3 0  9990
2 53807  53.2290  95.3116 0007128 124.4640 235.7039 15.38101241208195
YUNHAI-1 03             
1 53877U 22115A   26155.89603793  .00000387  00000+0  15809-3 0  9998
2 53877  98.5532 154.1994 0006043  84.3063 275.8810 14.32709714193758
CENTISPACE-1 S5         
1 54020U 22126A   26155.71713248  .00001051  00000+0  24012-3 0  9994
2 54020  54.9992 262.8608 0014106  49.2083 311.0133 14.62993733195218
CENTISPACE-1 S6         
1 54021U 22126B   26155.77250837  .00000820  00000+0  19837-3 0  9993
2 54021  54.9995 264.4469 0015959  48.8852 311.3517 14.62275362195187
OTB-3-GAZELLE           
1 54023U 22127A   26155.57567735  .00000185  00000+0  68566-4 0  9990
2 54023  98.3939 147.4723 0012217 222.4293 137.5953 14.42669812192549
ASO-S                   
1 54029U 22129A   26155.98814223  .00000280  00000+0  80225-4 0  9992
2 54029  98.2748 161.2434 0015415 127.0983 233.1624 14.52055760193657
HJ-2E                   
1 54035U 22132A   26155.92672362  .00009084  00000+0  39672-3 0  9993
2 54035  97.3799 160.5261 0021978  56.1906 304.1418 15.22122370202558
COSMOS 2561             
1 54109U 22137A   26155.84359247  .00015312  00000+0  26087-3 0  9992
2 54109  96.9182 215.3086 0011792  75.7370 284.5193 15.51379533204437
GONETS-M 23             
1 54150U 22139A   26155.94673532  .00000010  00000+0  36380-5 0  9995
2 54150  82.5074 355.9029 0020560 247.7227 112.1672 12.42890289164129
GONETS-M 24             
1 54151U 22139B   26155.91984115  .00000024  00000+0  10523-3 0  9999
2 54151  82.4991 354.9878 0015759 258.6389 101.2920 12.42890914164122
GONETS-M 25             
1 54152U 22139C   26155.90621038  .00000023  00000+0  97762-4 0  9991
2 54152  82.5050 355.6760 0019676 257.0575 102.8307 12.42889696164121
SKIF-D                  
1 54153U 22139D   26155.26587822  .00000020  00000+0  00000+0 0  9994
2 54153  89.9529  96.6713 0007372 205.0416 154.9662  5.00431518 63460
MATS                    
1 54227U 22147A   26155.81794874  .00004694  00000+0  33229-3 0  9997
2 54227  97.6820 157.4686 0011210 237.9031 122.1108 15.05276496195905
JILIN-1 GAOFEN 03D54    
1 54254U 22155D   26155.66280265  .00239832  23436-4  76250-3 0  9991
2 54254  97.6140 307.1688 0002965 273.4672  86.6262 15.91161385198306
EOS-6 (OCEANSAT-3)      
1 54361U 22158A   26155.92333997  .00000351  00000+0  10861-3 0  9998
2 54361  98.3532 254.2806 0001783  62.5883 297.5490 14.46993081186061
DONGPO 09               
1 54685U 22167D   26155.96872017  .00013414  00000+0  38424-3 0  9991
2 54685  97.6896 326.4334 0003128 144.4156 215.7297 15.36049394193571
DONGPO 08               
1 54686U 22167E   26155.99314410  .00011798  00000+0  36771-3 0  9999
2 54686  97.6860 323.6944 0007700 202.0636 158.0275 15.33390820193455
2022-167F               
1 54687U 22167F   26155.30813050  .00201264  00000+0  75302-3 0  9991
2 54687  97.6129 341.6803 0001445 156.1411 203.9927 15.87403429194788
