OBJECT_NAME,OBJECT_ID,EPOCH,MEAN_MOTION,ECCENTRICITY,INCLINATION,RA_OF_ASC_NODE,ARG_OF_PERICENTER,MEAN_ANOMALY,EPHEMERIS_TYPE,CLASSIFICATION_TYPE,NORAD_CAT_ID,ELEMENT_SET_NO,REV_AT_EPOCH,BSTAR,MEAN_MOTION_DOT,MEAN_MOTION_DDOT
LARES-2,2022-080A,2026-06-03T13:15:00.088704,6.38965171,.00053798,70.1655,310.0052,337.8766,22.1504,0,U,53105,999,9079,0,-.12E-6,0
GREENCUBE (IO-117),2022-080E,2026-06-01T11:09:37.753056,6.42583280,.00088692,70.1435,303.7143,293.3663,66.6064,0,U,53109,999,9105,0,-.3E-7,0
STARLINK-4410,2022-084R,2026-06-04T22:00:05.000256,15.26643695,.00015447,97.6001,216.7556,79.0840,345.7227,0,U,53204,999,583,.14179459E-2,.37247E-3,0
COSMOS 2558,2022-089A,2026-06-04T04:13:14.255616,15.72512989,.0000998,97.2257,258.7358,161.6253,198.5048,0,U,53323,999,21578,.8117E-3,.109256E-2,0
TECMS,2022-090A,2026-06-04T22:12:23.836032,15.21320358,.00022253,97.3138,224.3812,224.4255,135.6802,0,U,53346,999,21294,.20356433E-3,.4489E-4,0
DONGPO 02,2022-098J,2026-06-04T23:12:26.311680,15.72202851,.00010823,97.5514,286.1207,337.4473,22.6742,0,U,53452,999,21287,.78585604E-3,.104344E-2,0
DONGPO 01,2022-098K,2026-06-04T22:35:55.759776,15.70274146,.00009079,97.5575,286.6492,243.7874,116.3295,0,U,53453,999,21283,.73063998E-3,.89338E-3,0
STARLINK-4400,2022-099D,2026-06-04T05:15:23.939712,15.05627468,.00028654,97.4074,274.8158,168.2792,191.8502,0,U,53468,999,20899,.45310742E-3,.6482E-4,0
STARLINK-4621,2022-105AE,2026-06-04T05:19:24.933504,15.05627826,.00024804,97.4061,34.8288,59.2736,300.8735,0,U,53676,999,20625,.78463932E-4,.1074E-4,0
SHERPA-LTC2,2022-107BG,2026-06-03T14:02:30.177600,14.69514663,.03954958,53.2352,277.9059,187.9440,171.5150,0,U,53754,999,20054,.39248713E-3,.7806E-4,0
CENTISPACE-1 S3,2022-108A,2026-06-04T21:29:39.987744,14.61236908,.00086323,53.5320,106.0845,319.6318,40.4016,0,U,53757,999,19973,.1342231E-3,.478E-5,0
CENTISPACE-1 S4,2022-108B,2026-06-04T21:15:16.316928,14.61913762,.00079613,53.5296,103.7018,306.3252,53.6988,0,U,53758,999,19976,.16388548E-3,.637E-5,0
BLUEWALKER-3,2022-111AL,2026-06-04T02:52:28.176384,15.38101241,.00071287,53.2290,95.3116,124.4640,235.7039,0,U,53807,999,20819,.21918192E-3,.796E-4,0
YUNHAI-1 03,2022-115A,2026-06-04T21:30:17.677152,14.32709714,.00060431,98.5532,154.1994,84.3063,275.8810,0,U,53877,999,19375,.1580862E-3,.387E-5,0
CENTISPACE-1 S5,2022-126A,2026-06-04T17:12:40.246272,14.62993733,.0014106,54.9992,262.8608,49.2083,311.0133,0,U,54020,999,19521,.2401186E-3,.1051E-4,0
CENTISPACE-1 S6,2022-126B,2026-06-04T18:32:24.723168,14.62275362,.0015959,54.9995,264.4469,48.8852,311.3517,0,U,54021,999,19518,.19836892E-3,.82E-5,0
OTB-3-GAZELLE,2022-127A,2026-06-04T13:48:58.523040,14.42669812,.0012217,98.3939,147.4723,222.4293,137.5953,0,U,54023,999,19254,.68565907E-4,.185E-5,0
ASO-S,2022-129A,2026-06-04T23:42:55.488672,14.52055760,.00154155,98.2748,161.2434,127.0983,233.1624,0,U,54029,999,19365,.80225352E-4,.28E-5,0
HJ-2E,2022-132A,2026-06-04T22:14:28.920768,15.22122370,.00219782,97.3799,160.5261,56.1906,304.1418,0,U,54035,999,20255,.39671614E-3,.9084E-4,0
COSMOS 2561,2022-137A,2026-06-04T20:14:46.389408,15.51379533,.0011792,96.9182,215.3086,75.7370,284.5193,0,U,54109,999,20443,.26087E-3,.15312E-3,0
GONETS-M 23,2022-139A,2026-06-04T22:43:17.931648,12.42890289,.00205604,82.5074,355.9029,247.7227,112.1672,0,U,54150,999,16412,.3637967E-5,.1E-6,0
GONETS-M 24,2022-139B,2026-06-04T22:04:34.275360,12.42890914,.00157593,82.4991,354.9878,258.6389,101.2920,0,U,54151,999,16412,.10523294E-3,.24E-6,0
GONETS-M 25,2022-139C,2026-06-04T21:44:56.576832,12.42889696,.00196764,82.5050,355.6760,257.0575,102.8307,0,U,54152,999,16412,.97762181E-4,.23E-6,0
SKIF-D,2022-139D,2026-06-04T06:22:51.878208,5.00431518,.00073721,89.9529,96.6713,205.0416,154.9662,0,U,54153,999,6346,0,.2E-6,0
MATS,2022-147A,2026-06-04T19:37:50.771136,15.05276496,.00112106,97.6820,157.4686,237.9031,122.1108,0,U,54227,999,19590,.33228729E-3,.4694E-4,0
JILIN-1 GAOFEN 03D54,2022-155D,2026-06-04T15:54:26.148960,15.91161385,.00029653,97.6140,307.1688,273.4672,86.6262,0,U,54254,999,19830,.76250185E-3,.239832E-2,.2343591E-4
EOS-6 (OCEANSAT-3),2022-158A,2026-06-04T22:09:36.573408,14.46993081,.00017839,98.3532,254.2806,62.5883,297.5490,0,U,54361,999,18606,.10860698E-3,.351E-5,0
DONGPO 09,2022-167D,2026-06-04T23:14:57.422688,15.36049394,.00031287,97.6896,326.4334,144.4156,215.7297,0,U,54685,999,19357,.38424483E-3,.13414E-3,0
DONGPO 08,2022-167E,2026-06-04T23:50:07.650240,15.33390820,.00077007,97.6860,323.6944,202.0636,158.0275,0,U,54686,999,19345,.36771074E-3,.11798E-3,0
2022-167F,2022-167F,2026-06-04T07:23:42.475200,15.87403429,.00014458,97.6129,341.6803,156.1411,203.9927,0,U,54687,999,19478,.75302384E-3,.201264E-2,0
